ADRAS-J                 
1 58992U 24034A   24106.13978978  .00002215  00000+0  21429-3 0  9991
2 58992  98.2082  76.3554 0042420 255.7102 103.9404 14.93248051  8453
